[{"OBJECT_NAME":"STARLINK-35209","OBJECT_ID":"2025-210Q","EPOCH":"2025-11-18T18:06:37.798560","MEAN_MOTION":15.39660589,"ECCENTRICITY":9.183e-5,"INCLINATION":53.1596,"RA_OF_ASC_NODE":102.5615,"ARG_OF_PERICENTER":74.3044,"MEAN_ANOMALY":285.8063,"EPHEMERIS_TYPE":0,"CLASSIFICATION_TYPE":"U","NORAD_CAT_ID":65636,"ELEMENT_SET_NO":999,"REV_AT_EPOCH":1074,"BSTAR":0.0015833978,"MEAN_MOTION_DOT":0.00063549,"MEAN_MOTION_DDOT":0},{"OBJECT_NAME":"STARLINK-35147","OBJECT_ID":"2025-210R","EPOCH":"2025-11-18T17:59:56.371200","MEAN_MOTION":15.39657486,"ECCENTRICITY":3.76e-5,"INCLINATION":53.1569,"RA_OF_ASC_NODE":102.5324,"ARG_OF_PERICENTER":98.2822,"MEAN_ANOMALY":261.8226,"EPHEMERIS_TYPE":0,"CLASSIFICATION_TYPE":"U","NORAD_CAT_ID":65637,"ELEMENT_SET_NO":999,"REV_AT_EPOCH":1074,"BSTAR":0.0015230017,"MEAN_MOTION_DOT":0.00061084,"MEAN_MOTION_DDOT":0},{"OBJECT_NAME":"STARLINK-35213","OBJECT_ID":"2025-210S","EPOCH":"2025-11-18T19:26:43.643040","MEAN_MOTION":15.39677101,"ECCENTRICITY":6.741e-5,"INCLINATION":53.1601,"RA_OF_ASC_NODE":102.197,"ARG_OF_PERICENTER":355.3033,"MEAN_ANOMALY":4.7965,"EPHEMERIS_TYPE":0,"CLASSIFICATION_TYPE":"U","NORAD_CAT_ID":65638,"ELEMENT_SET_NO":999,"REV_AT_EPOCH":1075,"BSTAR":0.0012406427,"MEAN_MOTION_DOT":0.00049642,"MEAN_MOTION_DDOT":0},{"OBJECT_NAME":"STARLINK-35127","OBJECT_ID":"2025-210T","EPOCH":"2025-11-19T06:13:54.452928","MEAN_MOTION":15.39637349,"ECCENTRICITY":0.00021546,"INCLINATION":53.1581,"RA_OF_ASC_NODE":100.0219,"ARG_OF_PERICENTER":109.149,"MEAN_ANOMALY":250.9748,"EPHEMERIS_TYPE":0,"CLASSIFICATION_TYPE":"U","NORAD_CAT_ID":65639,"ELEMENT_SET_NO":999,"REV_AT_EPOCH":1082,"BSTAR":0.0011648851,"MEAN_MOTION_DOT":0.00046507,"MEAN_MOTION_DDOT":0},{"OBJECT_NAME":"STARLINK-35091","OBJECT_ID":"2025-210U","EPOCH":"2025-11-18T19:12:53.236224","MEAN_MOTION":15.39660226,"ECCENTRICITY":0.00021205,"INCLINATION":53.1559,"RA_OF_ASC_NODE":102.138,"ARG_OF_PERICENTER":76.3458,"MEAN_ANOMALY":283.7783,"EPHEMERIS_TYPE":0,"CLASSIFICATION_TYPE":"U","NORAD_CAT_ID":65640,"ELEMENT_SET_NO":999,"REV_AT_EPOCH":1075,"BSTAR":0.0011098809,"MEAN_MOTION_DOT":0.00044313,"MEAN_MOTION_DDOT":0},{"OBJECT_NAME":"STARLINK-35134","OBJECT_ID":"2025-210V","EPOCH":"2025-11-18T19:06:12.119904","MEAN_MOTION":15.39660487,"ECCENTRICITY":0.00023725,"INCLINATION":53.1564,"RA_OF_ASC_NODE":102.1046,"ARG_OF_PERICENTER":78.2257,"MEAN_ANOMALY":281.9014,"EPHEMERIS_TYPE":0,"CLASSIFICATION_TYPE":"U","NORAD_CAT_ID":65641,"ELEMENT_SET_NO":999,"REV_AT_EPOCH":1075,"BSTAR":0.0011788497,"MEAN_MOTION_DOT":0.0004711,"MEAN_MOTION_DDOT":0},{"OBJECT_NAME":"STARLINK-35109","OBJECT_ID":"2025-210W","EPOCH":"2025-11-19T04:20:22.425504","MEAN_MOTION":15.3967967,"ECCENTRICITY":0.00027294,"INCLINATION":53.1563,"RA_OF_ASC_NODE":100.2393,"ARG_OF_PERICENTER":82.3543,"MEAN_ANOMALY":277.7772,"EPHEMERIS_TYPE":0,"CLASSIFICATION_TYPE":"U","NORAD_CAT_ID":65642,"ELEMENT_SET_NO":999,"REV_AT_EPOCH":1081,"BSTAR":0.0011509202,"MEAN_MOTION_DOT":0.00046008,"MEAN_MOTION_DDOT":0},{"OBJECT_NAME":"STARLINK-35062","OBJECT_ID":"2025-210X","EPOCH":"2025-11-18T18:53:18.219552","MEAN_MOTION":15.39662778,"ECCENTRICITY":0.00024026,"INCLINATION":53.1561,"RA_OF_ASC_NODE":102.0453,"ARG_OF_PERICENTER":79.3997,"MEAN_ANOMALY":280.7278,"EPHEMERIS_TYPE":0,"CLASSIFICATION_TYPE":"U","NORAD_CAT_ID":65643,"ELEMENT_SET_NO":999,"REV_AT_EPOCH":1075,"BSTAR":0.0011513915,"MEAN_MOTION_DOT":0.00046,"MEAN_MOTION_DDOT":0},{"OBJECT_NAME":"STARLINK-35141","OBJECT_ID":"2025-210Y","EPOCH":"2025-11-18T19:53:53.498688","MEAN_MOTION":15.30217168,"ECCENTRICITY":6.898e-5,"INCLINATION":53.1611,"RA_OF_ASC_NODE":102.3125,"ARG_OF_PERICENTER":117.5092,"MEAN_ANOMALY":242.5979,"EPHEMERIS_TYPE":0,"CLASSIFICATION_TYPE":"U","NORAD_CAT_ID":65644,"ELEMENT_SET_NO":999,"REV_AT_EPOCH":1075,"BSTAR":0.0012737658,"MEAN_MOTION_DOT":0.00037577,"MEAN_MOTION_DDOT":0},{"OBJECT_NAME":"STARLINK-35237","OBJECT_ID":"2025-210Z","EPOCH":"2025-11-19T02:14:40.058016","MEAN_MOTION":15.30198018,"ECCENTRICITY":0.00011897,"INCLINATION":53.1569,"RA_OF_ASC_NODE":101.1184,"ARG_OF_PERICENTER":78.3068,"MEAN_ANOMALY":281.8066,"EPHEMERIS_TYPE":0,"CLASSIFICATION_TYPE":"U","NORAD_CAT_ID":65645,"ELEMENT_SET_NO":999,"REV_AT_EPOCH":1079,"BSTAR":0.001398526,"MEAN_MOTION_DOT":0.00041289,"MEAN_MOTION_DDOT":0},{"OBJECT_NAME":"STARLINK-35183","OBJECT_ID":"2025-210AA","EPOCH":"2025-11-19T02:00:59.548320","MEAN_MOTION":15.30200061,"ECCENTRICITY":0.00018095,"INCLINATION":53.1598,"RA_OF_ASC_NODE":101.0527,"ARG_OF_PERICENTER":65.0344,"MEAN_ANOMALY":295.0844,"EPHEMERIS_TYPE":0,"CLASSIFICATION_TYPE":"U","NORAD_CAT_ID":65646,"ELEMENT_SET_NO":999,"REV_AT_EPOCH":1079,"BSTAR":0.00073517974,"MEAN_MOTION_DOT":0.00021478,"MEAN_MOTION_DDOT":0},{"OBJECT_NAME":"STARLINK-35202","OBJECT_ID":"2025-210AB","EPOCH":"2025-11-18T18:03:07.510464","MEAN_MOTION":15.30212231,"ECCENTRICITY":0.00010763,"INCLINATION":53.1596,"RA_OF_ASC_NODE":102.5415,"ARG_OF_PERICENTER":86.2392,"MEAN_ANOMALY":273.8732,"EPHEMERIS_TYPE":0,"CLASSIFICATION_TYPE":"U","NORAD_CAT_ID":65647,"ELEMENT_SET_NO":999,"REV_AT_EPOCH":1074,"BSTAR":0.00090474878,"MEAN_MOTION_DOT":0.00026543,"MEAN_MOTION_DDOT":0},{"OBJECT_NAME":"STARLINK-34868","OBJECT_ID":"2025-210AC","EPOCH":"2025-11-18T19:25:01.463808","MEAN_MOTION":15.30240169,"ECCENTRICITY":0.00013851,"INCLINATION":53.1576,"RA_OF_ASC_NODE":102.1798,"ARG_OF_PERICENTER":74.2618,"MEAN_ANOMALY":285.8536,"EPHEMERIS_TYPE":0,"CLASSIFICATION_TYPE":"U","NORAD_CAT_ID":65648,"ELEMENT_SET_NO":999,"REV_AT_EPOCH":1075,"BSTAR":0.0015880411,"MEAN_MOTION_DOT":0.00047031,"MEAN_MOTION_DDOT":0},{"OBJECT_NAME":"STARLINK-35079","OBJECT_ID":"2025-210AD","EPOCH":"2025-11-18T19:34:08.482080","MEAN_MOTION":15.30214793,"ECCENTRICITY":5.829e-5,"INCLINATION":53.1567,"RA_OF_ASC_NODE":102.2221,"ARG_OF_PERICENTER":47.5877,"MEAN_ANOMALY":312.5173,"EPHEMERIS_TYPE":0,"CLASSIFICATION_TYPE":"U","NORAD_CAT_ID":65649,"ELEMENT_SET_NO":999,"REV_AT_EPOCH":1075,"BSTAR":0.0014495578,"MEAN_MOTION_DOT":0.0004284,"MEAN_MOTION_DDOT":0},{"OBJECT_NAME":"STARLINK-35328","OBJECT_ID":"2025-211A","EPOCH":"2025-11-19T03:19:12.056736","MEAN_MOTION":15.05663449,"ECCENTRICITY":0.00015101,"INCLINATION":97.6035,"RA_OF_ASC_NODE":5.0388,"ARG_OF_PERICENTER":70.7395,"MEAN_ANOMALY":289.3995,"EPHEMERIS_TYPE":0,"CLASSIFICATION_TYPE":"U","NORAD_CAT_ID":65652,"ELEMENT_SET_NO":999,"REV_AT_EPOCH":1040,"BSTAR":0.00012996174,"MEAN_MOTION_DOT":1.816e-5,"MEAN_MOTION_DDOT":0},{"OBJECT_NAME":"STARLINK-34210","OBJECT_ID":"2025-211B","EPOCH":"2025-11-19T03:11:13.854336","MEAN_MOTION":15.05657194,"ECCENTRICITY":0.00020616,"INCLINATION":97.6038,"RA_OF_ASC_NODE":5.043,"ARG_OF_PERICENTER":88.7677,"MEAN_ANOMALY":271.3786,"EPHEMERIS_TYPE":0,"CLASSIFICATION_TYPE":"U","NORAD_CAT_ID":65653,"ELEMENT_SET_NO":999,"REV_AT_EPOCH":1040,"BSTAR":0.0005245751,"MEAN_MOTION_DOT":7.518e-5,"MEAN_MOTION_DDOT":0}]
