STARLINK-35209          
1 65636U 25210Q   25322.75460415  .00063549  00000+0  15834-2 0  9991
2 65636  53.1596 102.5615 0000918  74.3044 285.8063 15.39660589 10743
STARLINK-35147          
1 65637U 25210R   25322.74995800  .00061084  00000+0  15230-2 0  9994
2 65637  53.1569 102.5324 0000376  98.2822 261.8226 15.39657486 10745
STARLINK-35213          
1 65638U 25210S   25322.81022735  .00049642  00000+0  12406-2 0  9999
2 65638  53.1601 102.1970 0000674 355.3033   4.7965 15.39677101 10759
STARLINK-35127          
1 65639U 25210T   25323.25965802  .00046507  00000+0  11649-2 0  9995
2 65639  53.1581 100.0219 0002154 109.1490 250.9748 15.39637349 10829
STARLINK-35091          
1 65640U 25210U   25322.80061616  .00044313  00000+0  11099-2 0  9999
2 65640  53.1559 102.1380 0002120  76.3458 283.7783 15.39660226 10755
STARLINK-35134          
1 65641U 25210V   25322.79597361  .00047110  00000+0  11788-2 0  9992
2 65641  53.1564 102.1046 0002372  78.2257 281.9014 15.39660487 10754
STARLINK-35109          
1 65642U 25210W   25323.18081511  .00046008  00000+0  11509-2 0  9998
2 65642  53.1563 100.2393 0002729  82.3543 277.7772 15.39679670 10813
STARLINK-35062          
1 65643U 25210X   25322.78701643  .00046000  00000+0  11514-2 0  9997
2 65643  53.1561 102.0453 0002402  79.3997 280.7278 15.39662778 10755
STARLINK-35141          
1 65644U 25210Y   25322.82909142  .00037577  00000+0  12738-2 0  9995
2 65644  53.1611 102.3125 0000689 117.5092 242.5979 15.30217168 10751
STARLINK-35237          
1 65645U 25210Z   25323.09351919  .00041289  00000+0  13985-2 0  9999
2 65645  53.1569 101.1184 0001189  78.3068 281.8066 15.30198018 10798
STARLINK-35183          
1 65646U 25210AA  25323.08402255  .00021478  00000+0  73518-3 0  9996
2 65646  53.1598 101.0527 0001809  65.0344 295.0844 15.30200061 10793
STARLINK-35202          
1 65647U 25210AB  25322.75217026  .00026543  00000+0  90475-3 0  9999
2 65647  53.1596 102.5415 0001076  86.2392 273.8732 15.30212231 10745
STARLINK-34868          
1 65648U 25210AC  25322.80904472  .00047031  00000+0  15880-2 0  9995
2 65648  53.1576 102.1798 0001385  74.2618 285.8536 15.30240169 10752
STARLINK-35079          
1 65649U 25210AD  25322.81537595  .00042840  00000+0  14496-2 0  9990
2 65649  53.1567 102.2221 0000582  47.5877 312.5173 15.30214793 10752
STARLINK-35328          
1 65652U 25211A   25323.13833399  .00001816  00000+0  12996-3 0  9994
2 65652  97.6035   5.0388 0001510  70.7395 289.3995 15.05663449 10401
STARLINK-34210          
1 65653U 25211B   25323.13279924  .00007518  00000+0  52458-3 0  9995
2 65653  97.6038   5.0430 0002061  88.7677 271.3786 15.05657194 10406
